{"type": "FeatureCollection", "features": [ {"type": "Feature", "properties": {"norad_id": 66925, "name": "STARLINK-35945", "group": "last-30-days", "lat": 6.847574212896816, "lon": 20.623434636886188, "alt_km": 331.65077010235836, "timestamp": "2025-12-19T16:54:42.969572+00:00", "meta": {"OBJECT_NAME": "STARLINK-35945", "OBJECT_ID": "2025-286A", "EPOCH": "2025-12-19T06:00:02.000160", "MEAN_MOTION": 15.80819715, "ECCENTRICITY": 8.055e-05, "INCLINATION": 53.1565, "RA_OF_ASC_NODE": 17.7343, "ARG_OF_PERICENTER": 79.3855, "MEAN_ANOMALY": 221.5287, "EPHEMERIS_TYPE": 0, "CLASSIFICATION_TYPE": "U", "NORAD_CAT_ID": 66925, "ELEMENT_SET_NO": 999, "REV_AT_EPOCH": 303, "BSTAR": -0.0075503395, "MEAN_MOTION_DOT": -0.01306897, "MEAN_MOTION_DDOT": 0}, "tle": {"line1": "1 66925U 25286A   25353.25002315 -.01306897  00000+0 -75503-2 0  9994", "line2": "2 66925  53.1565  17.7343 0000805  79.3855 221.5287 15.80819715  3038"}}, "geometry": {"type": "Point", "coordinates": [20.623434636886188, 6.847574212896816]}}, {"type": "Feature", "properties": {"norad_id": 66926, "name": "STARLINK-35942", "group": "last-30-days", "lat": 10.418977503047122, "lon": 23.37265308305716, "alt_km": 331.2799032618641, "timestamp": "2025-12-19T16:54:42.969582+00:00", "meta": {"OBJECT_NAME": "STARLINK-35942", "OBJECT_ID": "2025-286B", "EPOCH": "2025-12-19T06:00:02.000160", "MEAN_MOTION": 15.80785673, "ECCENTRICITY": 8.325e-05, "INCLINATION": 53.1561, "RA_OF_ASC_NODE": 17.7244, "ARG_OF_PERICENTER": 84.5862, "MEAN_ANOMALY": 220.8911, "EPHEMERIS_TYPE": 0, "CLASSIFICATION_TYPE": "U", "NORAD_CAT_ID": 66926, "ELEMENT_SET_NO": 999, "REV_AT_EPOCH": 303, "BSTAR": -0.0076726728, "MEAN_MOTION_DOT": -0.01323599, "MEAN_MOTION_DDOT": 0}, "tle": {"line1": "1 66926U 25286B   25353.25002315 -.01323599  00000+0 -76727-2 0  9992", "line2": "2 66926  53.1561  17.7244 0000832  84.5862 220.8911 15.80785673  3032"}}, "geometry": {"type": "Point", "coordinates": [23.37265308305716, 10.418977503047122]}}, {"type": "Feature", "properties": {"norad_id": 66927, "name": "STARLINK-35943", "group": "last-30-days", "lat": 12.075115414575395, "lon": 24.67438110740858, "alt_km": 330.9420022317927, "timestamp": "2025-12-19T16:54:42.969595+00:00", "meta": {"OBJECT_NAME": "STARLINK-35943", "OBJECT_ID": "2025-286C", "EPOCH": "2025-12-19T06:00:02.000160", "MEAN_MOTION": 15.80783174, "ECCENTRICITY": 9.228e-05, "INCLINATION": 53.156, "RA_OF_ASC_NODE": 17.7204, "ARG_OF_PERICENTER": 78.3567, "MEAN_ANOMALY": 229.2216, "EPHEMERIS_TYPE": 0, "CLASSIFICATION_TYPE": "U", "NORAD_CAT_ID": 66927, "ELEMENT_SET_NO": 999, "REV_AT_EPOCH": 303, "BSTAR": -0.0077017749, "MEAN_MOTION_DOT": -0.01327909, "MEAN_MOTION_DDOT": 0}, "tle": {"line1": "1 66927U 25286C   25353.25002315 -.01327909  00000+0 -77018-2 0  9996", "line2": "2 66927  53.1560  17.7204 0000922  78.3567 229.2216 15.80783174  3036"}}, "geometry": {"type": "Point", "coordinates": [24.67438110740858, 12.075115414575395]}}, {"type": "Feature", "properties": {"norad_id": 66928, "name": "STARLINK-35944", "group": "last-30-days", "lat": 8.737881856554692, "lon": 22.070011621922493, "alt_km": 331.4790839461257, "timestamp": "2025-12-19T16:54:42.969607+00:00", "meta": {"OBJECT_NAME": "STARLINK-35944", "OBJECT_ID": "2025-286D", "EPOCH": "2025-12-19T06:00:02.000160", "MEAN_MOTION": 15.80790228, "ECCENTRICITY": 7.954e-05, "INCLINATION": 53.1562, "RA_OF_ASC_NODE": 17.7289, "ARG_OF_PERICENTER": 80.418, "MEAN_ANOMALY": 222.9272, "EPHEMERIS_TYPE": 0, "CLASSIFICATION_TYPE": "U", "NORAD_CAT_ID": 66928, "ELEMENT_SET_NO": 999, "REV_AT_EPOCH": 303, "BSTAR": -0.0076216026, "MEAN_MOTION_DOT": -0.01316107, "MEAN_MOTION_DDOT": 0}, "tle": {"line1": "1 66928U 25286D   25353.25002315 -.01316107  00000+0 -76216-2 0  9994", "line2": "2 66928  53.1562  17.7289 0000795  80.4180 222.9272 15.80790228  3035"}}, "geometry": {"type": "Point", "coordinates": [22.070011621922493, 8.737881856554692]}}, {"type": "Feature", "properties": {"norad_id": 66929, "name": "STARLINK-36169", "group": "last-30-days", "lat": 13.806641499778193, "lon": 26.057288942777085, "alt_km": 330.6691384101605, "timestamp": "2025-12-19T16:54:42.969619+00:00", "meta": {"OBJECT_NAME": "STARLINK-36169", "OBJECT_ID": "2025-286E", "EPOCH": "2025-12-19T06:00:02.000160", "MEAN_MOTION": 15.80770523, "ECCENTRICITY": 9.035e-05, "INCLINATION": 53.1563, "RA_OF_ASC_NODE": 17.7155, "ARG_OF_PERICENTER": 73.4082, "MEAN_ANOMALY": 236.3933, "EPHEMERIS_TYPE": 0, "CLASSIFICATION_TYPE": "U", "NORAD_CAT_ID": 66929, "ELEMENT_SET_NO": 999, "REV_AT_EPOCH": 303, "BSTAR": -0.0077588862, "MEAN_MOTION_DOT": -0.01361287, "MEAN_MOTION_DDOT": 0}, "tle": {"line1": "1 66929U 25286E   25353.25002315 -.01361287  00000+0 -77589-2 0  9998", "line2": "2 66929  53.1563  17.7155 0000903  73.4082 236.3933 15.80770523  3032"}}, "geometry": {"type": "Point", "coordinates": [26.057288942777085, 13.806641499778193]}}, {"type": "Feature", "properties": {"norad_id": 66930, "name": "STARLINK-36206", "group": "last-30-days", "lat": 15.428772418246702, "lon": 27.377672281401512, "alt_km": 330.54790683533156, "timestamp": "2025-12-19T16:54:42.969630+00:00", "meta": {"OBJECT_NAME": "STARLINK-36206", "OBJECT_ID": "2025-286F", "EPOCH": "2025-12-19T06:00:02.000160", "MEAN_MOTION": 15.80768929, "ECCENTRICITY": 7.013e-05, "INCLINATION": 53.1561, "RA_OF_ASC_NODE": 17.711, "ARG_OF_PERICENTER": 80.7864, "MEAN_ANOMALY": 231.0833, "EPHEMERIS_TYPE": 0, "CLASSIFICATION_TYPE": "U", "NORAD_CAT_ID": 66930, "ELEMENT_SET_NO": 999, "REV_AT_EPOCH": 303, "BSTAR": -0.0077684712, "MEAN_MOTION_DOT": -0.0136259, "MEAN_MOTION_DDOT": 0}, "tle": {"line1": "1 66930U 25286F   25353.25002315 -.01362590  00000+0 -77685-2 0  9995", "line2": "2 66930  53.1561  17.7110 0000701  80.7864 231.0833 15.80768929  3036"}}, "geometry": {"type": "Point", "coordinates": [27.377672281401512, 15.428772418246702]}}, {"type": "Feature", "properties": {"norad_id": 66931, "name": "STARLINK-36130", "group": "last-30-days", "lat": 17.169487829758797, "lon": 28.825441278313505, "alt_km": 330.2497430463718, "timestamp": "2025-12-19T16:54:42.969639+00:00", "meta": {"OBJECT_NAME": "STARLINK-36130", "OBJECT_ID": "2025-286G", "EPOCH": "2025-12-19T06:00:02.000160", "MEAN_MOTION": 15.80754232, "ECCENTRICITY": 8.368e-05, "INCLINATION": 53.1561, "RA_OF_ASC_NODE": 17.7063, "ARG_OF_PERICENTER": 77.1488, "MEAN_ANOMALY": 236.9841, "EPHEMERIS_TYPE": 0, "CLASSIFICATION_TYPE": "U", "NORAD_CAT_ID": 66931, "ELEMENT_SET_NO": 999, "REV_AT_EPOCH": 303, "BSTAR": -0.0078424521, "MEAN_MOTION_DOT": -0.013734, "MEAN_MOTION_DDOT": 0}, "tle": {"line1": "1 66931U 25286G   25353.25002315 -.01373400  00000+0 -78425-2 0  9991", "line2": "2 66931  53.1561  17.7063 0000836  77.1488 236.9841 15.80754232  3030"}}, "geometry": {"type": "Point", "coordinates": [28.825441278313505, 17.169487829758797]}}, {"type": "Feature", "properties": {"norad_id": 66932, "name": "STARLINK-36177", "group": "last-30-days", "lat": 18.87520537649872, "lon": 30.279680355023647, "alt_km": 330.03228723636767, "timestamp": "2025-12-19T16:54:42.969650+00:00", "meta": {"OBJECT_NAME": "STARLINK-36177", "OBJECT_ID": "2025-286H", "EPOCH": "2025-12-19T06:00:02.000160", "MEAN_MOTION": 15.80741384, "ECCENTRICITY": 8.439e-05, "INCLINATION": 53.1559, "RA_OF_ASC_NODE": 17.7017, "ARG_OF_PERICENTER": 79.2792, "MEAN_ANOMALY": 237.0771, "EPHEMERIS_TYPE": 0, "CLASSIFICATION_TYPE": "U", "NORAD_CAT_ID": 66932, "ELEMENT_SET_NO": 999, "REV_AT_EPOCH": 303, "BSTAR": -0.0078864324, "MEAN_MOTION_DOT": -0.01379534, "MEAN_MOTION_DDOT": 0}, "tle": {"line1": "1 66932U 25286H   25353.25002315 -.01379534  00000+0 -78864-2 0  9993", "line2": "2 66932  53.1559  17.7017 0000843  79.2792 237.0771 15.80741384  3034"}}, "geometry": {"type": "Point", "coordinates": [30.279680355023647, 18.87520537649872]}}, {"type": "Feature", "properties": {"norad_id": 66933, "name": "STARLINK-36157", "group": "last-30-days", "lat": 20.552671015847185, "lon": 31.748930470252073, "alt_km": 329.7917786338048, "timestamp": "2025-12-19T16:54:42.969660+00:00", "meta": {"OBJECT_NAME": "STARLINK-36157", "OBJECT_ID": "2025-286J", "EPOCH": "2025-12-19T06:00:02.000160", "MEAN_MOTION": 15.80729284, "ECCENTRICITY": 7.749e-05, "INCLINATION": 53.156, "RA_OF_ASC_NODE": 17.6972, "ARG_OF_PERICENTER": 76.0305, "MEAN_ANOMALY": 242.5239, "EPHEMERIS_TYPE": 0, "CLASSIFICATION_TYPE": "U", "NORAD_CAT_ID": 66933, "ELEMENT_SET_NO": 999, "REV_AT_EPOCH": 303, "BSTAR": -0.0079224149, "MEAN_MOTION_DOT": -0.01384409, "MEAN_MOTION_DDOT": 0}, "tle": {"line1": "1 66933U 25286J   25353.25002315 -.01384409  00000+0 -79224-2 0  9992", "line2": "2 66933  53.1560  17.6972 0000774  76.0305 242.5239 15.80729284  3039"}}, "geometry": {"type": "Point", "coordinates": [31.748930470252073, 20.552671015847185]}}, {"type": "Feature", "properties": {"norad_id": 66934, "name": "STARLINK-36153", "group": "last-30-days", "lat": 22.224485974388898, "lon": 33.256740044869616, "alt_km": 329.582505706594, "timestamp": "2025-12-19T16:54:42.969672+00:00", "meta": {"OBJECT_NAME": "STARLINK-36153", "OBJECT_ID": "2025-286K", "EPOCH": "2025-12-19T06:00:02.000160", "MEAN_MOTION": 15.80719702, "ECCENTRICITY": 7.934e-05, "INCLINATION": 53.156, "RA_OF_ASC_NODE": 17.6921, "ARG_OF_PERICENTER": 79.0503, "MEAN_ANOMALY": 241.7138, "EPHEMERIS_TYPE": 0, "CLASSIFICATION_TYPE": "U", "NORAD_CAT_ID": 66934, "ELEMENT_SET_NO": 999, "REV_AT_EPOCH": 303, "BSTAR": -0.0079944698, "MEAN_MOTION_DOT": -0.01395073, "MEAN_MOTION_DDOT": 0}, "tle": {"line1": "1 66934U 25286K   25353.25002315 -.01395073  00000+0 -79945-2 0  9992", "line2": "2 66934  53.1560  17.6921 0000793  79.0503 241.7138 15.80719702  3031"}}, "geometry": {"type": "Point", "coordinates": [33.256740044869616, 22.224485974388898]}}]}